[{"OBJECT_NAME":"HAWK-6C","OBJECT_ID":"2023-011C","EPOCH":"2026-03-09T16:08:26.380320","MEAN_MOTION":15.2190256,"ECCENTRICITY":0.00024272,"INCLINATION":40.4846,"RA_OF_ASC_NODE":208.9466,"ARG_OF_PERICENTER":10.2947,"MEAN_ANOMALY":349.7911,"EPHEMERIS_TYPE":0,"CLASSIFICATION_TYPE":"U","NORAD_CAT_ID":55326,"ELEMENT_SET_NO":999,"REV_AT_EPOCH":17268,"BSTAR":0.00033931673,"MEAN_MOTION_DOT":7.702e-5,"MEAN_MOTION_DDOT":0},{"OBJECT_NAME":"COSMOS 2579","OBJECT_ID":"2024-197A","EPOCH":"2026-03-09T23:06:38.118816","MEAN_MOTION":15.2412329,"ECCENTRICITY":0.00026117,"INCLINATION":97.557,"RA_OF_ASC_NODE":352.0823,"ARG_OF_PERICENTER":56.3903,"MEAN_ANOMALY":303.7583,"EPHEMERIS_TYPE":0,"CLASSIFICATION_TYPE":"U","NORAD_CAT_ID":61730,"ELEMENT_SET_NO":999,"REV_AT_EPOCH":7535,"BSTAR":0.00021686366,"MEAN_MOTION_DOT":5.199e-5,"MEAN_MOTION_DDOT":0}]
